[{"OBJECT_NAME":"STARLINK-32778","OBJECT_ID":"2025-008S","EPOCH":"2026-03-09T00:02:45.356640","MEAN_MOTION":15.27606177,"ECCENTRICITY":0.00024982,"INCLINATION":43.0038,"RA_OF_ASC_NODE":282.2901,"ARG_OF_PERICENTER":277.9089,"MEAN_ANOMALY":82.1479,"EPHEMERIS_TYPE":0,"CLASSIFICATION_TYPE":"U","NORAD_CAT_ID":62603,"ELEMENT_SET_NO":999,"REV_AT_EPOCH":6545,"BSTAR":0.0012959095,"MEAN_MOTION_DOT":0.00035601,"MEAN_MOTION_DDOT":0},{"OBJECT_NAME":"OBJECT H","OBJECT_ID":"2025-055H","EPOCH":"2026-03-09T23:29:50.051328","MEAN_MOTION":15.30330066,"ECCENTRICITY":0.00075967,"INCLINATION":97.636,"RA_OF_ASC_NODE":211.9572,"ARG_OF_PERICENTER":140.4354,"MEAN_ANOMALY":219.7441,"EPHEMERIS_TYPE":0,"CLASSIFICATION_TYPE":"U","NORAD_CAT_ID":63298,"ELEMENT_SET_NO":999,"REV_AT_EPOCH":5423,"BSTAR":0.0015582864,"MEAN_MOTION_DOT":0.00045901,"MEAN_MOTION_DDOT":0}]
